DUPLEX                  
1 66906U 98067XS  26080.52730255  .00038764  00000+0  53199-3 0  9999
2 66906  51.6307  10.2070 0003099 163.5582 196.5511 15.56940206 16971
ISS OBJECT XT           
1 66907U 98067XT  26080.03159806  .00186272  00000+0  13142-2 0  9994
2 66907  51.6258   7.6205 0005284 153.4746 206.6524 15.72936378 16964
ISS OBJECT XU           
1 66908U 98067XU  26080.02880812  .00200572  00000+0  14030-2 0  9999
2 66908  51.6252   7.5980 0005511 153.1323 206.9962 15.73089438 16965
SILVERSAT               
1 66909U 98067XV  26080.51222595  .00348638  00000+0  19791-2 0  9997
2 66909  51.6233   4.0686 0006023 160.8728 199.2500 15.77449180 17054
ISS OBJECT XW           
1 66910U 98067XW  26080.03258213  .00172990  00000+0  12769-2 0  9996
2 66910  51.6252   7.6193 0005851 154.3698 205.7591 15.71910553 16964
ISS OBJECT XX           
1 66911U 98067XX  26080.47988468  .00475515  00000+0  21416-2 0  9995
2 66911  51.6206   3.0741 0007593 163.5848 196.5401 15.82190962 17051
ISS OBJECT XY           
1 66912U 98067XY  26080.52366142  .00129023  00000+0  12252-2 0  9999
2 66912  51.6282   7.1735 0003878 158.9718 201.1438 15.65954710 17008
KNACKSAT-2              
1 67683U 98067XZ  26080.50860441  .00053549  00000+0  85041-3 0  9990
2 67683  51.6323  13.0810 0009748 227.9080 132.1082 15.52759437  6620
CORAL                   
1 67684U 98067YA  26080.52289188  .00108459  00000+0  14993-2 0  9994
2 67684  51.6312  12.4272 0012074 217.4243 142.5908 15.56214538  6630
GXIBA-1                 
1 67685U 98067YB  26080.11495484  .00047255  00000+0  74016-3 0  9997
2 67685  51.6326  14.9523 0011665 223.8015 136.2051 15.53173336  6563
UITMSAT-2               
1 67686U 98067YC  26079.20424217  .00036971  00000+0  56833-3 0  9992
2 67686  51.6331  19.3725 0008503 189.8163 170.2663 15.53839493  6420
HMU-SAT2                
1 67687U 98067YD  26080.11864851  .00045244  00000+0  71638-3 0  9990
2 67687  51.6326  14.9790 0008241 196.2419 163.8308 15.52930306  6487
LEOPARD                 
1 67688U 98067YE  26080.10933344  .00050861  00000+0  78512-3 0  9993
2 67688  51.6330  14.9166 0008406 194.0087 166.0671 15.53580320  6486
CREW DRAGON 12          
1 67796U 26031A   26080.51758049  .00014080  00000+0  26848-3 0  9995
2 67796  51.6347  13.8885 0006310 215.8915 144.1650 15.48422342558089
