[{"OBJECT_NAME":"DUPLEX","OBJECT_ID":"1998-067XS","EPOCH":"2026-03-21T12:39:18.940320","MEAN_MOTION":15.56940206,"ECCENTRICITY":0.00030994,"INCLINATION":51.6307,"RA_OF_ASC_NODE":10.207,"ARG_OF_PERICENTER":163.5582,"MEAN_ANOMALY":196.5511,"EPHEMERIS_TYPE":0,"CLASSIFICATION_TYPE":"U","NORAD_CAT_ID":66906,"ELEMENT_SET_NO":999,"REV_AT_EPOCH":1697,"BSTAR":0.00053199276,"MEAN_MOTION_DOT":0.00038764,"MEAN_MOTION_DDOT":0},{"OBJECT_NAME":"ISS OBJECT XT","OBJECT_ID":"1998-067XT","EPOCH":"2026-03-21T00:45:30.072384","MEAN_MOTION":15.72936378,"ECCENTRICITY":0.00052843,"INCLINATION":51.6258,"RA_OF_ASC_NODE":7.6205,"ARG_OF_PERICENTER":153.4746,"MEAN_ANOMALY":206.6524,"EPHEMERIS_TYPE":0,"CLASSIFICATION_TYPE":"U","NORAD_CAT_ID":66907,"ELEMENT_SET_NO":999,"REV_AT_EPOCH":1696,"BSTAR":0.0013141675,"MEAN_MOTION_DOT":0.00186272,"MEAN_MOTION_DDOT":0},{"OBJECT_NAME":"ISS OBJECT XU","OBJECT_ID":"1998-067XU","EPOCH":"2026-03-21T00:41:29.021568","MEAN_MOTION":15.73089438,"ECCENTRICITY":0.00055113,"INCLINATION":51.6252,"RA_OF_ASC_NODE":7.598,"ARG_OF_PERICENTER":153.1323,"MEAN_ANOMALY":206.9962,"EPHEMERIS_TYPE":0,"CLASSIFICATION_TYPE":"U","NORAD_CAT_ID":66908,"ELEMENT_SET_NO":999,"REV_AT_EPOCH":1696,"BSTAR":0.0014030412,"MEAN_MOTION_DOT":0.00200572,"MEAN_MOTION_DDOT":0},{"OBJECT_NAME":"SILVERSAT","OBJECT_ID":"1998-067XV","EPOCH":"2026-03-21T12:17:36.322080","MEAN_MOTION":15.7744918,"ECCENTRICITY":0.00060233,"INCLINATION":51.6233,"RA_OF_ASC_NODE":4.0686,"ARG_OF_PERICENTER":160.8728,"MEAN_ANOMALY":199.25,"EPHEMERIS_TYPE":0,"CLASSIFICATION_TYPE":"U","NORAD_CAT_ID":66909,"ELEMENT_SET_NO":999,"REV_AT_EPOCH":1705,"BSTAR":0.0019790942,"MEAN_MOTION_DOT":0.00348638,"MEAN_MOTION_DDOT":0},{"OBJECT_NAME":"ISS OBJECT XW","OBJECT_ID":"1998-067XW","EPOCH":"2026-03-21T00:46:55.096032","MEAN_MOTION":15.71910553,"ECCENTRICITY":0.00058519,"INCLINATION":51.6252,"RA_OF_ASC_NODE":7.6193,"ARG_OF_PERICENTER":154.3698,"MEAN_ANOMALY":205.7591,"EPHEMERIS_TYPE":0,"CLASSIFICATION_TYPE":"U","NORAD_CAT_ID":66910,"ELEMENT_SET_NO":999,"REV_AT_EPOCH":1696,"BSTAR":0.0012769001,"MEAN_MOTION_DOT":0.0017299,"MEAN_MOTION_DDOT":0},{"OBJECT_NAME":"ISS OBJECT XX","OBJECT_ID":"1998-067XX","EPOCH":"2026-03-21T11:31:02.036352","MEAN_MOTION":15.82190962,"ECCENTRICITY":0.00075932,"INCLINATION":51.6206,"RA_OF_ASC_NODE":3.0741,"ARG_OF_PERICENTER":163.5848,"MEAN_ANOMALY":196.5401,"EPHEMERIS_TYPE":0,"CLASSIFICATION_TYPE":"U","NORAD_CAT_ID":66911,"ELEMENT_SET_NO":999,"REV_AT_EPOCH":1705,"BSTAR":0.0021416363,"MEAN_MOTION_DOT":0.00475515,"MEAN_MOTION_DDOT":0},{"OBJECT_NAME":"ISS OBJECT XY","OBJECT_ID":"1998-067XY","EPOCH":"2026-03-21T12:34:04.346688","MEAN_MOTION":15.6595471,"ECCENTRICITY":0.0003878,"INCLINATION":51.6282,"RA_OF_ASC_NODE":7.1735,"ARG_OF_PERICENTER":158.9718,"MEAN_ANOMALY":201.1438,"EPHEMERIS_TYPE":0,"CLASSIFICATION_TYPE":"U","NORAD_CAT_ID":66912,"ELEMENT_SET_NO":999,"REV_AT_EPOCH":1700,"BSTAR":0.0012251516,"MEAN_MOTION_DOT":0.00129023,"MEAN_MOTION_DDOT":0},{"OBJECT_NAME":"KNACKSAT-2","OBJECT_ID":"1998-067XZ","EPOCH":"2026-03-21T12:12:23.421024","MEAN_MOTION":15.52759437,"ECCENTRICITY":0.00097487,"INCLINATION":51.6323,"RA_OF_ASC_NODE":13.081,"ARG_OF_PERICENTER":227.908,"MEAN_ANOMALY":132.1082,"EPHEMERIS_TYPE":0,"CLASSIFICATION_TYPE":"U","NORAD_CAT_ID":67683,"ELEMENT_SET_NO":999,"REV_AT_EPOCH":662,"BSTAR":0.00085040514,"MEAN_MOTION_DOT":0.00053549,"MEAN_MOTION_DDOT":0},{"OBJECT_NAME":"CORAL","OBJECT_ID":"1998-067YA","EPOCH":"2026-03-21T12:32:57.858432","MEAN_MOTION":15.56214538,"ECCENTRICITY":0.00120744,"INCLINATION":51.6312,"RA_OF_ASC_NODE":12.4272,"ARG_OF_PERICENTER":217.4243,"MEAN_ANOMALY":142.5908,"EPHEMERIS_TYPE":0,"CLASSIFICATION_TYPE":"U","NORAD_CAT_ID":67684,"ELEMENT_SET_NO":999,"REV_AT_EPOCH":663,"BSTAR":0.0014993478,"MEAN_MOTION_DOT":0.00108459,"MEAN_MOTION_DDOT":0},{"OBJECT_NAME":"GXIBA-1","OBJECT_ID":"1998-067YB","EPOCH":"2026-03-21T02:45:32.098176","MEAN_MOTION":15.53173336,"ECCENTRICITY":0.00116659,"INCLINATION":51.6326,"RA_OF_ASC_NODE":14.9523,"ARG_OF_PERICENTER":223.8015,"MEAN_ANOMALY":136.2051,"EPHEMERIS_TYPE":0,"CLASSIFICATION_TYPE":"U","NORAD_CAT_ID":67685,"ELEMENT_SET_NO":999,"REV_AT_EPOCH":656,"BSTAR":0.00074015681,"MEAN_MOTION_DOT":0.00047255,"MEAN_MOTION_DDOT":0},{"OBJECT_NAME":"UITMSAT-2","OBJECT_ID":"1998-067YC","EPOCH":"2026-03-20T04:54:06.523488","MEAN_MOTION":15.53839493,"ECCENTRICITY":0.00085039,"INCLINATION":51.6331,"RA_OF_ASC_NODE":19.3725,"ARG_OF_PERICENTER":189.8163,"MEAN_ANOMALY":170.2663,"EPHEMERIS_TYPE":0,"CLASSIFICATION_TYPE":"U","NORAD_CAT_ID":67686,"ELEMENT_SET_NO":999,"REV_AT_EPOCH":642,"BSTAR":0.00056833207,"MEAN_MOTION_DOT":0.00036971,"MEAN_MOTION_DDOT":0},{"OBJECT_NAME":"HMU-SAT2","OBJECT_ID":"1998-067YD","EPOCH":"2026-03-21T02:50:51.231264","MEAN_MOTION":15.52930306,"ECCENTRICITY":0.00082419,"INCLINATION":51.6326,"RA_OF_ASC_NODE":14.979,"ARG_OF_PERICENTER":196.2419,"MEAN_ANOMALY":163.8308,"EPHEMERIS_TYPE":0,"CLASSIFICATION_TYPE":"U","NORAD_CAT_ID":67687,"ELEMENT_SET_NO":999,"REV_AT_EPOCH":648,"BSTAR":0.00071638411,"MEAN_MOTION_DOT":0.00045244,"MEAN_MOTION_DDOT":0},{"OBJECT_NAME":"LEOPARD","OBJECT_ID":"1998-067YE","EPOCH":"2026-03-21T02:37:26.409216","MEAN_MOTION":15.5358032,"ECCENTRICITY":0.00084068,"INCLINATION":51.633,"RA_OF_ASC_NODE":14.9166,"ARG_OF_PERICENTER":194.0087,"MEAN_ANOMALY":166.0671,"EPHEMERIS_TYPE":0,"CLASSIFICATION_TYPE":"U","NORAD_CAT_ID":67688,"ELEMENT_SET_NO":999,"REV_AT_EPOCH":648,"BSTAR":0.00078511675,"MEAN_MOTION_DOT":0.00050861,"MEAN_MOTION_DDOT":0},{"OBJECT_NAME":"CREW DRAGON 12","OBJECT_ID":"2026-031A","EPOCH":"2026-03-21T12:25:18.954336","MEAN_MOTION":15.48422342,"ECCENTRICITY":0.000631,"INCLINATION":51.6347,"RA_OF_ASC_NODE":13.8885,"ARG_OF_PERICENTER":215.8915,"MEAN_ANOMALY":144.165,"EPHEMERIS_TYPE":0,"CLASSIFICATION_TYPE":"U","NORAD_CAT_ID":67796,"ELEMENT_SET_NO":999,"REV_AT_EPOCH":55808,"BSTAR":0.00026848155,"MEAN_MOTION_DOT":0.0001408,"MEAN_MOTION_DDOT":0}]
